STARLINK-35322          
1 66332U 25253P   25334.50251862  .00055545  00000+0  94435-3 0  9994
2 66332  43.0003  56.2564 0001083 276.3518  83.7219 15.50625435  5038
STARLINK-35400          
1 66333U 25253Q   25334.50114906  .00100222  00000+0  16906-2 0  9991
2 66333  43.0004  56.2450 0001189 275.6320  84.4405 15.50609525  5031
STARLINK-35407          
1 66334U 25253R   25334.50217706  .00070897  00000+0  12025-2 0  9996
2 66334  43.0002  56.2548 0001482 271.9186  88.1505 15.50599957  5032
STARLINK-35417          
1 66335U 25253S   25334.50004630  .00037155  00000+0  89350-3 0  9993
2 66335  42.9998  56.3423 0001323 286.0323  31.0838 15.40662341  4966
STARLINK-35404          
1 66336U 25253T   25334.50046178  .00073868  00000+0  12520-2 0  9992
2 66336  43.0001  56.2399 0001549 271.2270  88.8412 15.50603397  5036
STARLINK-34783          
1 66337U 25253U   25334.50004630 -.02203587  00000+0 -54868-1 0  9997
2 66337  42.9997  56.2861 0001434 276.7748  63.6426 15.42742289  5015
STARLINK-35477          
1 66338U 25253V   25334.50004630  .00031068  00000+0  74956-3 0  9999
2 66338  42.9994  56.3738 0000450 300.7269   3.9437 15.40635399  5054
STARLINK-35443          
1 66339U 25253W   25334.43364675  .00083026  00000+0  14049-2 0  9997
2 66339  42.9996  56.5957 0001739 278.6294  81.4369 15.50601718  5025
STARLINK-35218          
1 66340U 25253X   25334.50011882  .00062578  00000+0  10632-2 0  9999
2 66340  43.0008  56.2370 0001662 270.1689  89.8980 15.50598512  5038
STARLINK-35522          
1 66341U 25253Y   25334.50149172  .00072764  00000+0  12335-2 0  9994
2 66341  43.0002  56.2497 0001116 269.4892  90.5840 15.50604539  5035
STARLINK-35535          
1 66342U 25253Z   25334.43400014  .00028797  00000+0  49577-3 0  9998
2 66342  42.9996  56.5985 0002065 271.9719  88.0905 15.50527460  5021
STARLINK-35467          
1 66343U 25253AA  25334.50004630 -.02055994  00000+0 -46964-1 0  9999
2 66343  43.0000  56.2438 0001400 279.0485  78.2992 15.45577008  4967
