CCSDS_OMM_VERS = 2.0
CREATION_DATE  = 
ORIGINATOR     = 

OBJECT_NAME    = STARLINK-35322
OBJECT_ID      = 2025-253P
CENTER_NAME    = EARTH
REF_FRAME      = TEME
TIME_SYSTEM    = UTC
MEAN_ELEMENT_THEORY = SGP/SGP4

EPOCH          = 2025-11-30T12:03:37.608768
MEAN_MOTION    = 15.50625435
ECCENTRICITY   = .0001083
INCLINATION    = 43.0003
RA_OF_ASC_NODE = 56.2564
ARG_OF_PERICENTER = 276.3518
MEAN_ANOMALY   = 83.7219

EPHEMERIS_TYPE = 0
CLASSIFICATION_TYPE = U
NORAD_CAT_ID   = 66332
ELEMENT_SET_NO = 999
REV_AT_EPOCH   = 503
BSTAR          = .94435E-3
MEAN_MOTION_DOT = .55545E-3
MEAN_MOTION_DDOT = 0

CCSDS_OMM_VERS = 2.0
CREATION_DATE  = 
ORIGINATOR     = 

OBJECT_NAME    = STARLINK-35400
OBJECT_ID      = 2025-253Q
CENTER_NAME    = EARTH
REF_FRAME      = TEME
TIME_SYSTEM    = UTC
MEAN_ELEMENT_THEORY = SGP/SGP4

EPOCH          = 2025-11-30T12:01:39.278784
MEAN_MOTION    = 15.50609525
ECCENTRICITY   = .0001189
INCLINATION    = 43.0004
RA_OF_ASC_NODE = 56.2450
ARG_OF_PERICENTER = 275.6320
MEAN_ANOMALY   = 84.4405

EPHEMERIS_TYPE = 0
CLASSIFICATION_TYPE = U
NORAD_CAT_ID   = 66333
ELEMENT_SET_NO = 999
REV_AT_EPOCH   = 503
BSTAR          = .16906E-2
MEAN_MOTION_DOT = .100222E-2
MEAN_MOTION_DDOT = 0

CCSDS_OMM_VERS = 2.0
CREATION_DATE  = 
ORIGINATOR     = 

OBJECT_NAME    = STARLINK-35407
OBJECT_ID      = 2025-253R
CENTER_NAME    = EARTH
REF_FRAME      = TEME
TIME_SYSTEM    = UTC
MEAN_ELEMENT_THEORY = SGP/SGP4

EPOCH          = 2025-11-30T12:03:08.097984
MEAN_MOTION    = 15.50599957
ECCENTRICITY   = .0001482
INCLINATION    = 43.0002
RA_OF_ASC_NODE = 56.2548
ARG_OF_PERICENTER = 271.9186
MEAN_ANOMALY   = 88.1505

EPHEMERIS_TYPE = 0
CLASSIFICATION_TYPE = U
NORAD_CAT_ID   = 66334
ELEMENT_SET_NO = 999
REV_AT_EPOCH   = 503
BSTAR          = .12025E-2
MEAN_MOTION_DOT = .70897E-3
MEAN_MOTION_DDOT = 0

CCSDS_OMM_VERS = 2.0
CREATION_DATE  = 
ORIGINATOR     = 

OBJECT_NAME    = STARLINK-35417
OBJECT_ID      = 2025-253S
CENTER_NAME    = EARTH
REF_FRAME      = TEME
TIME_SYSTEM    = UTC
MEAN_ELEMENT_THEORY = SGP/SGP4

EPOCH          = 2025-11-30T12:00:04.000320
MEAN_MOTION    = 15.40662341
ECCENTRICITY   = .0001323
INCLINATION    = 42.9998
RA_OF_ASC_NODE = 56.3423
ARG_OF_PERICENTER = 286.0323
MEAN_ANOMALY   = 31.0838

EPHEMERIS_TYPE = 0
CLASSIFICATION_TYPE = U
NORAD_CAT_ID   = 66335
ELEMENT_SET_NO = 999
REV_AT_EPOCH   = 496
BSTAR          = .8935E-3
MEAN_MOTION_DOT = .37155E-3
MEAN_MOTION_DDOT = 0

CCSDS_OMM_VERS = 2.0
CREATION_DATE  = 
ORIGINATOR     = 

OBJECT_NAME    = STARLINK-35404
OBJECT_ID      = 2025-253T
CENTER_NAME    = EARTH
REF_FRAME      = TEME
TIME_SYSTEM    = UTC
MEAN_ELEMENT_THEORY = SGP/SGP4

EPOCH          = 2025-11-30T12:00:39.897792
MEAN_MOTION    = 15.50603397
ECCENTRICITY   = .0001549
INCLINATION    = 43.0001
RA_OF_ASC_NODE = 56.2399
ARG_OF_PERICENTER = 271.2270
MEAN_ANOMALY   = 88.8412

EPHEMERIS_TYPE = 0
CLASSIFICATION_TYPE = U
NORAD_CAT_ID   = 66336
ELEMENT_SET_NO = 999
REV_AT_EPOCH   = 503
BSTAR          = .1252E-2
MEAN_MOTION_DOT = .73868E-3
MEAN_MOTION_DDOT = 0

CCSDS_OMM_VERS = 2.0
CREATION_DATE  = 
ORIGINATOR     = 

OBJECT_NAME    = STARLINK-34783
OBJECT_ID      = 2025-253U
CENTER_NAME    = EARTH
REF_FRAME      = TEME
TIME_SYSTEM    = UTC
MEAN_ELEMENT_THEORY = SGP/SGP4

EPOCH          = 2025-11-30T12:00:04.000320
MEAN_MOTION    = 15.42742289
ECCENTRICITY   = .0001434
INCLINATION    = 42.9997
RA_OF_ASC_NODE = 56.2861
ARG_OF_PERICENTER = 276.7748
MEAN_ANOMALY   = 63.6426

EPHEMERIS_TYPE = 0
CLASSIFICATION_TYPE = U
NORAD_CAT_ID   = 66337
ELEMENT_SET_NO = 999
REV_AT_EPOCH   = 501
BSTAR          = -.54868E-1
MEAN_MOTION_DOT = -.2203587E-1
MEAN_MOTION_DDOT = 0

CCSDS_OMM_VERS = 2.0
CREATION_DATE  = 
ORIGINATOR     = 

OBJECT_NAME    = STARLINK-35477
OBJECT_ID      = 2025-253V
CENTER_NAME    = EARTH
REF_FRAME      = TEME
TIME_SYSTEM    = UTC
MEAN_ELEMENT_THEORY = SGP/SGP4

EPOCH          = 2025-11-30T12:00:04.000320
MEAN_MOTION    = 15.40635399
ECCENTRICITY   = .000045
INCLINATION    = 42.9994
RA_OF_ASC_NODE = 56.3738
ARG_OF_PERICENTER = 300.7269
MEAN_ANOMALY   = 3.9437

EPHEMERIS_TYPE = 0
CLASSIFICATION_TYPE = U
NORAD_CAT_ID   = 66338
ELEMENT_SET_NO = 999
REV_AT_EPOCH   = 505
BSTAR          = .74956E-3
MEAN_MOTION_DOT = .31068E-3
MEAN_MOTION_DDOT = 0

CCSDS_OMM_VERS = 2.0
CREATION_DATE  = 
ORIGINATOR     = 

OBJECT_NAME    = STARLINK-35443
OBJECT_ID      = 2025-253W
CENTER_NAME    = EARTH
REF_FRAME      = TEME
TIME_SYSTEM    = UTC
MEAN_ELEMENT_THEORY = SGP/SGP4

EPOCH          = 2025-11-30T10:24:27.079200
MEAN_MOTION    = 15.50601718
ECCENTRICITY   = .0001739
INCLINATION    = 42.9996
RA_OF_ASC_NODE = 56.5957
ARG_OF_PERICENTER = 278.6294
MEAN_ANOMALY   = 81.4369

EPHEMERIS_TYPE = 0
CLASSIFICATION_TYPE = U
NORAD_CAT_ID   = 66339
ELEMENT_SET_NO = 999
REV_AT_EPOCH   = 502
BSTAR          = .14049E-2
MEAN_MOTION_DOT = .83026E-3
MEAN_MOTION_DDOT = 0

CCSDS_OMM_VERS = 2.0
CREATION_DATE  = 
ORIGINATOR     = 

OBJECT_NAME    = STARLINK-35218
OBJECT_ID      = 2025-253X
CENTER_NAME    = EARTH
REF_FRAME      = TEME
TIME_SYSTEM    = UTC
MEAN_ELEMENT_THEORY = SGP/SGP4

EPOCH          = 2025-11-30T12:00:10.266048
MEAN_MOTION    = 15.50598512
ECCENTRICITY   = .0001662
INCLINATION    = 43.0008
RA_OF_ASC_NODE = 56.2370
ARG_OF_PERICENTER = 270.1689
MEAN_ANOMALY   = 89.8980

EPHEMERIS_TYPE = 0
CLASSIFICATION_TYPE = U
NORAD_CAT_ID   = 66340
ELEMENT_SET_NO = 999
REV_AT_EPOCH   = 503
BSTAR          = .10632E-2
MEAN_MOTION_DOT = .62578E-3
MEAN_MOTION_DDOT = 0

CCSDS_OMM_VERS = 2.0
CREATION_DATE  = 
ORIGINATOR     = 

OBJECT_NAME    = STARLINK-35522
OBJECT_ID      = 2025-253Y
CENTER_NAME    = EARTH
REF_FRAME      = TEME
TIME_SYSTEM    = UTC
MEAN_ELEMENT_THEORY = SGP/SGP4

EPOCH          = 2025-11-30T12:02:08.884608
MEAN_MOTION    = 15.50604539
ECCENTRICITY   = .0001116
INCLINATION    = 43.0002
RA_OF_ASC_NODE = 56.2497
ARG_OF_PERICENTER = 269.4892
MEAN_ANOMALY   = 90.5840

EPHEMERIS_TYPE = 0
CLASSIFICATION_TYPE = U
NORAD_CAT_ID   = 66341
ELEMENT_SET_NO = 999
REV_AT_EPOCH   = 503
BSTAR          = .12335E-2
MEAN_MOTION_DOT = .72764E-3
MEAN_MOTION_DDOT = 0

CCSDS_OMM_VERS = 2.0
CREATION_DATE  = 
ORIGINATOR     = 

OBJECT_NAME    = STARLINK-35535
OBJECT_ID      = 2025-253Z
CENTER_NAME    = EARTH
REF_FRAME      = TEME
TIME_SYSTEM    = UTC
MEAN_ELEMENT_THEORY = SGP/SGP4

EPOCH          = 2025-11-30T10:24:57.612096
MEAN_MOTION    = 15.50527460
ECCENTRICITY   = .0002065
INCLINATION    = 42.9996
RA_OF_ASC_NODE = 56.5985
ARG_OF_PERICENTER = 271.9719
MEAN_ANOMALY   = 88.0905

EPHEMERIS_TYPE = 0
CLASSIFICATION_TYPE = U
NORAD_CAT_ID   = 66342
ELEMENT_SET_NO = 999
REV_AT_EPOCH   = 502
BSTAR          = .49577E-3
MEAN_MOTION_DOT = .28797E-3
MEAN_MOTION_DDOT = 0

CCSDS_OMM_VERS = 2.0
CREATION_DATE  = 
ORIGINATOR     = 

OBJECT_NAME    = STARLINK-35467
OBJECT_ID      = 2025-253AA
CENTER_NAME    = EARTH
REF_FRAME      = TEME
TIME_SYSTEM    = UTC
MEAN_ELEMENT_THEORY = SGP/SGP4

EPOCH          = 2025-11-30T12:00:04.000320
MEAN_MOTION    = 15.45577008
ECCENTRICITY   = .00014
INCLINATION    = 43.0000
RA_OF_ASC_NODE = 56.2438
ARG_OF_PERICENTER = 279.0485
MEAN_ANOMALY   = 78.2992

EPHEMERIS_TYPE = 0
CLASSIFICATION_TYPE = U
NORAD_CAT_ID   = 66343
ELEMENT_SET_NO = 999
REV_AT_EPOCH   = 496
BSTAR          = -.46964E-1
MEAN_MOTION_DOT = -.2055994E-1
MEAN_MOTION_DDOT = 0

